NORAD_CAT_ID,OBJECT_NAME,OBJECT_TYPE,EPOCH,MEAN_MOTION,ECCENTRICITY,INCLINATION,RA_OF_ASC_NODE,ARG_OF_PERICENTER,MEAN_ANOMALY,BSTAR,MEAN_MOTION_DOT,MEAN_MOTION_DDOT,TLE_LINE0,TLE_LINE1,TLE_LINE2,SEMIMAJOR_AXIS,PERIOD,APOGEE,PERIGEE,DECAYED
53003.0,STARLINK-4255,PAYLOAD,2023-10-06 13:31:51,15.08834891,0.0001316,53.2154,107.6051,80.0798,280.0343,-7.2982e-05,-1.449e-05,0.0,0 STARLINK-4255,1 53003U 22076T   23279.56379127 -.00001449  00000-0 -72982-4 0  9993,2 53003  53.2154 107.6051 0001316  80.0798 280.0343 15.08834891 69222,6917.896,95.438,540.671,538.851,0.0
53003.0,STARLINK-4255,PAYLOAD,2023-10-06 19:53:24,15.08840509,0.0001404,53.2166,106.4177,86.0585,274.0567,8.1522e-05,1.01e-05,0.0,0 STARLINK-4255,1 53003U 22076T   23279.82875003  .00001010  00000-0  81522-4 0  9998,2 53003  53.2166 106.4177 0001404  86.0585 274.0567 15.08840509 69267,6917.879,95.438,540.715,538.773,0.0
53003.0,STARLINK-4255,PAYLOAD,2023-10-06 23:04:10,15.08843226,0.0001339,53.2156,105.8215,82.7303,277.3841,0.00015228,2.137e-05,0.0,0 STARLINK-4255,1 53003U 22076T   23279.96122889  .00002137  00000-0  15228-3 0  9990,2 53003  53.2156 105.8215 0001339  82.7303 277.3841 15.08843226 69754,6917.871,95.437,540.662,538.809,0.0
53003.0,STARLINK-4255,PAYLOAD,2023-10-07 13:22:38,15.08838756,0.0001337,53.2157,103.1449,88.4974,271.6171,0.00019217,2.772e-05,0.0,0 STARLINK-4255,1 53003U 22076T   23280.55739263  .00002772  00000-0  19217-3 0  9994,2 53003  53.2157 103.1449 0001337  88.4974 271.6171 15.08838756 69373,6917.884,95.438,540.674,538.824,0.0
53003.0,STARLINK-4255,PAYLOAD,2023-10-07 19:44:11,15.08846904,0.0001318,53.216,101.9556,86.8411,273.2732,0.00029432,4.4e-05,0.0,0 STARLINK-4255,1 53003U 22076T   23280.82235002  .00004400  00000-0  29432-3 0  9996,2 53003  53.2160 101.9556 0001318  86.8411 273.2732 15.08846904 69419,6917.859,95.437,540.636,538.813,0.0
53003.0,STARLINK-4255,PAYLOAD,2023-10-08 05:16:29,15.0884185,0.0001328,53.216,100.1705,79.9808,280.1334,0.00018864,2.716e-05,0.0,0 STARLINK-4255,1 53003U 22076T   23281.21979161  .00002716  00000-0  18864-3 0  9996,2 53003  53.2160 100.1705 0001328  79.9808 280.1334 15.08841850 69948,6917.875,95.437,540.658,538.821,0.0
53003.0,STARLINK-4255,PAYLOAD,2023-10-08 11:38:02,15.08836944,0.0001408,53.2165,98.9822,85.2854,274.8298,8.7587e-05,1.106e-05,0.0,0 STARLINK-4255,1 53003U 22076T   23281.48475468  .00001106  00000-0  87587-4 0  9997,2 53003  53.2165  98.9822 0001408  85.2854 274.8298 15.08836944 69517,6917.89,95.438,540.729,538.781,0.0
53003.0,STARLINK-4255,PAYLOAD,2023-10-08 19:34:58,15.08842022,0.0001456,53.2166,97.496,82.768,277.3478,0.00010202,1.336e-05,0.0,0 STARLINK-4255,1 53003U 22076T   23281.81595344  .00001336  00000-0  10202-3 0  9994,2 53003  53.2166  97.4960 0001456  82.7680 277.3478 15.08842022 69564,6917.874,95.437,540.746,538.732,0.0
53003.0,STARLINK-4255,PAYLOAD,2023-10-09 11:28:49,15.08842617,0.0001408,53.2162,94.5218,84.4186,275.6967,0.00015414,2.166e-05,0.0,0 STARLINK-4255,1 53003U 22076T   23282.47835335  .00002166  00000-0  15414-3 0  9996,2 53003  53.2162  94.5218 0001408  84.4186 275.6967 15.08842617 69666,6917.872,95.437,540.711,538.763,0.0
53003.0,STARLINK-4255,PAYLOAD,2023-10-09 17:50:21,15.08851109,0.0001341,53.2159,93.3312,89.1965,270.9181,0.00019196,2.769e-05,0.0,0 STARLINK-4255,1 53003U 22076T   23282.74330839  .00002769  00000-0  19196-3 0  9995,2 53003  53.2159  93.3312 0001341  89.1965 270.9181 15.08851109 70177,6917.846,95.437,540.639,538.784,0.0
53003.0,STARLINK-4255,PAYLOAD,2023-10-10 17:41:08,15.08848664,0.0001401,53.2161,88.8709,89.9699,270.1453,0.00022038,3.222e-05,0.0,0 STARLINK-4255,1 53003U 22076T   23283.73690826  .00003222  00000-0  22038-3 0  9994,2 53003  53.2161  88.8709 0001401  89.9699 270.1453 15.08848664 70321,6917.854,95.437,540.688,538.75,0.0
53003.0,STARLINK-4255,PAYLOAD,2023-10-10 20:51:54,15.08852018,0.0001405,53.2163,88.2754,91.7958,268.3195,0.00018428,2.647e-05,0.0,0 STARLINK-4255,1 53003U 22076T   23283.86938543  .00002647  00000-0  18428-3 0  9997,2 53003  53.2163  88.2754 0001405  91.7958 268.3195 15.08852018 69878,6917.844,95.437,540.681,538.737,0.0
53003.0,STARLINK-4255,PAYLOAD,2023-10-11 11:10:23,15.08836863,0.000154,53.2156,85.6007,87.9011,272.2157,-1.1107e-05,-4.65e-06,0.0,0 STARLINK-4255,1 53003U 22076T   23284.46555355 -.00000465  00000-0 -11107-4 0  9996,2 53003  53.2156  85.6007 0001540  87.9011 272.2157 15.08836863 70435,6917.89,95.438,540.82,538.69,0.0
53003.0,STARLINK-4255,PAYLOAD,2023-10-12 14:11:56,15.08845013,0.0001468,53.2171,80.5463,84.4771,275.6389,0.00010221,1.339e-05,0.0,0 STARLINK-4255,1 53003U 22076T   23285.59163016  .00001339  00000-0  10221-3 0  9994,2 53003  53.2171  80.5463 0001468  84.4771 275.6389 15.08845013 70134,6917.865,95.437,540.746,538.715,0.0
53003.0,STARLINK-4255,PAYLOAD,2023-10-12 17:22:42,15.0885289,0.0001351,53.2173,79.9497,84.766,275.3487,0.00023354,3.432e-05,0.0,0 STARLINK-4255,1 53003U 22076T   23285.72410608  .00003432  00000-0  23354-3 0  9998,2 53003  53.2173  79.9497 0001351  84.7660 275.3487 15.08852890 70627,6917.841,95.437,540.641,538.771,0.0
53003.0,STARLINK-4255,PAYLOAD,2023-10-13 02:55:01,15.08843373,0.0001369,53.217,78.1663,82.7109,277.4039,5.5529e-05,5.96e-06,0.0,0 STARLINK-4255,1 53003U 22076T   23286.12154950  .00000596  00000-0  55529-4 0  9996,2 53003  53.2170  78.1663 0001369  82.7109 277.4039 15.08843373 70683,6917.87,95.437,540.682,538.788,0.0
53003.0,STARLINK-4255,PAYLOAD,2023-10-13 10:51:58,15.08833721,0.0001461,53.2187,76.6825,81.6323,278.4834,0.00010179,1.332e-05,0.0,0 STARLINK-4255,1 53003U 22076T   23286.45275744  .00001332  00000-0  10179-3 0  9997,2 53003  53.2187  76.6825 0001461  81.6323 278.4834 15.08833721 70739,6917.9,95.438,540.775,538.754,0.0
53003.0,STARLINK-4255,PAYLOAD,2023-10-13 14:02:44,15.08835436,0.0001412,53.2171,76.085,78.3907,281.7243,4.9883e-05,5.06e-06,0.0,0 STARLINK-4255,1 53003U 22076T   23286.58523658  .00000506  00000-0  49883-4 0  9998,2 53003  53.2171  76.0850 0001412  78.3907 281.7243 15.08835436 70287,6917.894,95.438,540.736,538.783,0.0
53003.0,STARLINK-4255,PAYLOAD,2023-10-13 17:13:30,15.08843211,0.0001296,53.2162,75.4919,80.8889,279.225,0.00016877,2.399e-05,0.0,0 STARLINK-4255,1 53003U 22076T   23286.71771268  .00002399  00000-0  16877-3 0  9993,2 53003  53.2162  75.4919 0001296  80.8889 279.2250 15.08843211 70777,6917.871,95.437,540.632,538.839,0.0
53003.0,STARLINK-4255,PAYLOAD,2023-10-14 13:53:31,15.08839758,0.0001271,53.2169,71.6248,81.8029,278.3107,4.7191e-05,4.63e-06,0.0,0 STARLINK-4255,1 53003U 22076T   23287.57883354  .00000463  00000-0  47191-4 0  9992,2 53003  53.2169  71.6248 0001271  81.8029 278.3107 15.08839758 70432,6917.881,95.438,540.625,538.867,0.0
53003.0,STARLINK-4255,PAYLOAD,2023-10-14 15:28:54,15.08845133,0.0001434,53.2172,71.3265,82.9096,277.2059,7.1428e-05,8.49e-06,0.0,0 STARLINK-4255,1 53003U 22076T   23287.64507195  .00000849  00000-0  71428-4 0  9994,2 53003  53.2172  71.3265 0001434  82.9096 277.2059 15.08845133 70448,6917.865,95.437,540.722,538.738,0.0
53003.0,STARLINK-4255,PAYLOAD,2023-10-15 13:44:18,15.08830409,0.0001333,53.2169,67.165,87.1112,273.0033,-8.7984e-06,-4.28e-06,0.0,0 STARLINK-4255,1 53003U 22076T   23288.57244088 -.00000428  00000-0 -87984-5 0  9996,2 53003  53.2169  67.1650 0001333  87.1112 273.0033 15.08830409 70580,6917.91,95.438,540.697,538.853,0.0
53003.0,STARLINK-4255,PAYLOAD,2023-10-15 16:55:05,15.0883745,0.0001374,53.2171,66.5703,87.6276,272.4874,4.7833e-05,4.73e-06,0.0,0 STARLINK-4255,1 53003U 22076T   23288.70491947  .00000473  00000-0  47833-4 0  9995,2 53003  53.2171  66.5703 0001374  87.6276 272.4874 15.08837450 71070,6917.888,95.438,540.704,538.803,0.0
53003.0,STARLINK-4255,PAYLOAD,2023-10-16 13:35:06,15.08839453,0.000151,53.2177,62.7045,81.4297,278.6866,0.00010968,1.458e-05,0.0,0 STARLINK-4255,1 53003U 22076T   23289.56604228  .00001458  00000-0  10968-3 0  9990,2 53003  53.2177  62.7045 0001510  81.4297 278.6866 15.08839453 70736,6917.882,95.438,540.792,538.702,0.0
53003.0,STARLINK-4255,PAYLOAD,2023-10-16 16:45:52,15.088434,0.0001571,53.2175,62.11,80.2652,279.8517,0.00015452,2.172e-05,0.0,0 STARLINK-4255,1 53003U 22076T   23289.69852092  .00002172  00000-0  15452-3 0  9995,2 53003  53.2175  62.1100 0001571  80.2652 279.8517 15.08843400 70754,6917.87,95.437,540.822,538.648,0.0
53003.0,STARLINK-4255,PAYLOAD,2023-10-17 08:39:44,15.08831295,0.000156,53.2186,59.1377,80.0811,280.0357,0.00053027,8.159e-05,0.0,0 STARLINK-4255,1 53003U 22076T   23290.36092718  .00008159  00000-0  53027-3 0  9993,2 53003  53.2186  59.1377 0001560  80.0811 280.0357 15.08831295 71320,6917.907,95.438,540.851,538.693,0.0
53003.0,STARLINK-4255,PAYLOAD,2023-10-18 02:08:58,15.08846725,0.0001707,53.2191,55.8674,76.8758,283.2424,0.00018735,2.695e-05,0.0,0 STARLINK-4255,1 53003U 22076T   23291.08956030  .00002695  00000-0  18735-3 0  9995,2 53003  53.2191  55.8674 0001707  76.8758 283.2424 15.08846725 70968,6917.86,95.437,540.906,538.544,0.0
53003.0,STARLINK-4255,PAYLOAD,2023-10-18 14:52:03,15.08841922,0.000147,53.2184,53.4865,91.6044,268.5116,9.3246e-05,1.196e-05,0.0,0 STARLINK-4255,1 53003U 22076T   23291.61948312  .00001196  00000-0  93246-4 0  9994,2 53003  53.2184  53.4865 0001470  91.6044 268.5116 15.08841922 71516,6917.875,95.437,540.756,538.723,0.0
53003.0,STARLINK-4255,PAYLOAD,2023-10-19 11:32:04,15.08821712,0.0002054,53.2173,49.6208,97.481,262.6416,0.00094098,0.00014712,0.0,0 STARLINK-4255,1 53003U 22076T   23292.48061172  .00014712  00000-0  94098-3 0  9993,2 53003  53.2173  49.6208 0002054  97.4810 262.6416 15.08821712 71643,6917.936,95.439,541.222,538.38,0.0
53003.0,STARLINK-4255,PAYLOAD,2023-10-20 11:22:51,15.08834116,0.0001483,53.2195,45.1618,96.5271,263.589,1.9445e-05,2.1e-07,0.0,0 STARLINK-4255,1 53003U 22076T   23293.47420414  .00000021  00000-0  19445-4 0  9993,2 53003  53.2195  45.1618 0001483  96.5271 263.5890 15.08834116 71322,6917.898,95.438,540.789,538.737,0.0
